[{"OBJECT_NAME":"LYRA-4","OBJECT_ID":"2025-140A","EPOCH":"2026-03-09T22:14:48.302880","MEAN_MOTION":14.72230607,"ECCENTRICITY":0.00130646,"INCLINATION":95.9893,"RA_OF_ASC_NODE":215.2508,"ARG_OF_PERICENTER":170.6132,"MEAN_ANOMALY":189.5328,"EPHEMERIS_TYPE":0,"CLASSIFICATION_TYPE":"U","NORAD_CAT_ID":64691,"ELEMENT_SET_NO":999,"REV_AT_EPOCH":3745,"BSTAR":0.00032811988,"MEAN_MOTION_DOT":2.043e-5,"MEAN_MOTION_DDOT":0},{"OBJECT_NAME":"SPOT 5","OBJECT_ID":"2002-021A","EPOCH":"2026-03-09T17:03:45.913248","MEAN_MOTION":14.54660938,"ECCENTRICITY":0.01288757,"INCLINATION":97.9988,"RA_OF_ASC_NODE":111.9274,"ARG_OF_PERICENTER":225.4452,"MEAN_ANOMALY":133.6166,"EPHEMERIS_TYPE":0,"CLASSIFICATION_TYPE":"U","NORAD_CAT_ID":27421,"ELEMENT_SET_NO":999,"REV_AT_EPOCH":24838,"BSTAR":0.00012379735,"MEAN_MOTION_DOT":5.41e-6,"MEAN_MOTION_DDOT":0}]
